STARLINK-31882          
1 59855U 24097W   26068.53533116 -.00000307  00000+0 -16355-5 0  9999
2 59855  43.0030 268.2570 0000852 237.0873 122.9896 15.27575603101975
HAWK-11C                
1 62381U 24247E   26068.51221537  .00009223  00000+0  33290-3 0  9992
2 62381  45.0045 114.8762 0005900 329.7040  30.3502 15.28848020 67743
